NORAD_CAT_ID,OBJECT_NAME,OBJECT_TYPE,EPOCH,MEAN_MOTION,ECCENTRICITY,INCLINATION,RA_OF_ASC_NODE,ARG_OF_PERICENTER,MEAN_ANOMALY,BSTAR,MEAN_MOTION_DOT,MEAN_MOTION_DDOT,TLE_LINE0,TLE_LINE1,TLE_LINE2,SEMIMAJOR_AXIS,PERIOD,APOGEE,PERIGEE,DECAYED
49411.0,STARLINK-3162,PAYLOAD,2022-11-12 14:12:42,15.08849667,0.0002733,53.2154,264.9369,29.2183,330.8962,0.00027847,4.148e-05,0.0,0 STARLINK-3162,1 49411U 21104D   22316.59215738  .00004148  00000-0  27847-3 0  9999,2 49411  53.2154 264.9369 0002733  29.2183 330.8962 15.08849667 55634,6917.851,95.437,541.606,537.825,0.0
49411.0,STARLINK-3162,PAYLOAD,2022-11-12 17:23:28,15.08850787,0.0002736,53.2156,264.3435,24.9984,335.1140000000001,0.00028543,4.259e-05,0.0,0 STARLINK-3162,1 49411U 21104D   22316.72463571  .00004259  00000-0  28543-3 0  9991,2 49411  53.2156 264.3435 0002736  24.9984 335.1140 15.08850787 55651,6917.847,95.437,541.605,537.82,0.0
49411.0,STARLINK-3162,PAYLOAD,2022-11-13 02:55:47,15.08850777,0.0002882,53.2153,262.5591,28.4295,331.6854,0.00017048,2.427e-05,0.0,0 STARLINK-3162,1 49411U 21104D   22317.12207425  .00002427  00000-0  17048-3 0  9993,2 49411  53.2153 262.5591 0002882  28.4295 331.6854 15.08850777 55716,6917.847,95.437,541.706,537.719,0.0
49411.0,STARLINK-3162,PAYLOAD,2022-11-13 17:14:16,15.08834369,0.0002762,53.2167,259.8822,26.4693,333.644,-9.5246e-05,-1.804e-05,0.0,0 STARLINK-3162,1 49411U 21104D   22317.71824689 -.00001804  00000-0 -95246-4 0  9992,2 49411  53.2167 259.8822 0002762  26.4693 333.6440 15.08834369 56885,6917.898,95.438,541.673,537.852,0.0
49411.0,STARLINK-3162,PAYLOAD,2022-11-14 05:57:23,15.08817894,0.0002872,53.2164,257.5039,26.2851,333.8286,-0.00021448,-3.699e-05,0.0,0 STARLINK-3162,1 49411U 21104D   22318.24818455 -.00003699  00000-0 -21448-3 0  9991,2 49411  53.2164 257.5039 0002872  26.2851 333.8286 15.08817894 56966,6917.948,95.439,541.8,537.826,0.0
49411.0,STARLINK-3162,PAYLOAD,2022-11-14 17:05:04,15.08829149,0.0002886,53.2165,255.4217,25.5879,334.5256,-9.3976e-05,-1.784e-05,0.0,0 STARLINK-3162,1 49411U 21104D   22318.71185692 -.00001784  00000-0 -93976-4 0  9992,2 49411  53.2165 255.4217 0002886  25.5879 334.5256 15.08829149 55958,6917.9140000000025,95.438,541.775,537.7819999999998,0.0
49411.0,STARLINK-3162,PAYLOAD,2022-11-14 20:15:49,15.08839623,0.000293,53.2166,254.8279,26.4122,333.7019,3.5972e-05,2.84e-06,0.0,0 STARLINK-3162,1 49411U 21104D   22318.84432740  .00000284  00000-0  35972-4 0  9999,2 49411  53.2166 254.8279 0002930  26.4122 333.7019 15.08839623 57050,6917.882,95.438,541.773,537.72,0.0
49411.0,STARLINK-3162,PAYLOAD,2022-11-15 12:09:41,15.08834803,0.0002898999999999,53.2163,251.8536,26.7753,333.3388,0.00012424,1.689e-05,0.0,0 STARLINK-3162,1 49411U 21104D   22319.50673069  .00001689  00000-0  12424-3 0  9990,2 49411  53.2163 251.8536 0002899  26.7753 333.3388 15.08834803 56078,6917.896,95.438,541.7669999999998,537.756,0.0
49411.0,STARLINK-3162,PAYLOAD,2022-11-15 20:06:37,15.08827189,0.0002984,53.2158,250.3662,25.7394,334.3746,0.0001886,2.713e-05,0.0,0 STARLINK-3162,1 49411U 21104D   22319.83793464  .00002713  00000-0  18860-3 0  9997,2 49411  53.2158 250.3662 0002984  25.7394 334.3746 15.08827189 57205,6917.92,95.438,541.849,537.72,0.0
49411.0,STARLINK-3162,PAYLOAD,2022-11-16 02:28:10,15.08823891,0.0003034,53.2164,249.1775,25.1777,334.9362,0.00014594,2.034e-05,0.0,0 STARLINK-3162,1 49411U 21104D   22320.10290023  .00002034  00000-0  14594-3 0  9998,2 49411  53.2164 249.1775 0003034  25.1777 334.9362 15.08823891 56169,6917.93,95.439,541.894,537.696,0.0
49411.0,STARLINK-3162,PAYLOAD,2022-11-17 02:18:57,15.08838338,0.0002961,53.2166,244.7168,27.3478,332.767,1.6657e-05,-2.4e-07,0.0,0 STARLINK-3162,1 49411U 21104D   22321.09649916 -.00000024  00000-0  16657-4 0  9997,2 49411  53.2166 244.7168 0002961  27.3478 332.7670 15.08838338 57394,6917.885,95.438,541.799,537.702,0.0
49411.0,STARLINK-3162,PAYLOAD,2022-11-17 05:29:43,15.08840481,0.0003016,53.2167,244.1221,26.8392,333.2755,1.0298e-06,-2.72e-06,0.0,0 STARLINK-3162,1 49411U 21104D   22321.22897879 -.00000272  00000-0  10298-5 0  9996,2 49411  53.2167 244.1221 0003016  26.8392 333.2755 15.08840481 56335,6917.879,95.438,541.83,537.6569999999998,0.0
49411.0,STARLINK-3162,PAYLOAD,2022-11-18 11:42:02,15.08844191,0.0002985,53.2167,238.472,27.233,332.8818,0.00010282,1.348e-05,0.0,0 STARLINK-3162,1 49411U 21104D   22322.48753314  .00001348  00000-0  10282-3 0  9995,2 49411  53.2167 238.4720 0002985  27.2330 332.8818 15.08844191 57604,6917.868,95.437,541.798,537.668,0.0
49411.0,STARLINK-3162,PAYLOAD,2022-11-19 03:35:54,15.08842347,0.0003015,53.2165,235.4982,28.3667,331.7489,8.476700000000001e-05,1.061e-05,0.0,0 STARLINK-3162,1 49411U 21104D   22323.14993400  .00001061  00000-0  84767-4 0  9993,2 49411  53.2165 235.4982 0003015  28.3667 331.7489 15.08842347 56623,6917.873000000001,95.437,541.8240000000002,537.6519999999998,0.0
49411.0,STARLINK-3162,PAYLOAD,2022-11-19 11:32:49,15.08844727,0.0003037,53.2164,234.0115,28.4077,331.708,7.1095e-05,8.43e-06,0.0,0 STARLINK-3162,1 49411U 21104D   22323.48113189  .00000843  00000-0  71095-4 0  9995,2 49411  53.2164 234.0115 0003037  28.4077 331.7080 15.08844727 56671,6917.866,95.437,541.832,537.63,0.0
49411.0,STARLINK-3162,PAYLOAD,2022-11-20 03:26:42,15.08828563,0.0002908,53.2166,231.0374,27.2783,332.8361,-4.6639e-05,-1.031e-05,0.0,0 STARLINK-3162,1 49411U 21104D   22324.14354546 -.00001031  00000-0 -46639-4 0  9991,2 49411  53.2166 231.0374 0002908  27.2783 332.8361 15.08828563 57859,6917.915,95.438,541.7919999999998,537.769,0.0
49411.0,STARLINK-3162,PAYLOAD,2022-11-21 03:17:26,15.08975533,0.0003361,53.2154,226.5773,17.1247,342.9858,-0.0017242,-0.0002773,0.0,0 STARLINK-3162,1 49411U 21104D   22325.13710655 -.00027730  00000-0 -17242-2 0  9998,2 49411  53.2154 226.5773 0003361  17.1247 342.9858 15.08975533 58006,6917.465999999999,95.429,541.656,537.006,0.0
49411.0,STARLINK-3162,PAYLOAD,2022-11-21 09:39:00,15.08850688,0.000301,53.2157,225.3887,26.624,333.4906,6.9022e-05,8.1e-06,0.0,0 STARLINK-3162,1 49411U 21104D   22325.40208844  .00000810  00000-0  69022-4 0  9993,2 49411  53.2157 225.3887 0003010  26.6240 333.4906 15.08850688 58047,6917.848000000001,95.437,541.795,537.63,0.0
49411.0,STARLINK-3162,PAYLOAD,2022-11-22 03:08:15,15.08834391,0.0003018,53.2157,222.1168,28.8691,331.2468,0.00012679,1.73e-05,0.0,0 STARLINK-3162,1 49411U 21104D   22326.13073742  .00001730  00000-0  12679-3 0  9998,2 49411  53.2157 222.1168 0003018  28.8691 331.2468 15.08834391 58150,6917.898,95.438,541.85,537.675,0.0
49411.0,STARLINK-3162,PAYLOAD,2022-11-22 20:37:29,15.0884473,0.0003029,53.2167,218.8447,32.1615,327.9561,3.8534e-05,3.25e-06,0.0,0 STARLINK-3162,1 49411U 21104D   22326.85937431  .00000325  00000-0  38534-4 0  9999,2 49411  53.2167 218.8447 0003029  32.1615 327.9561 15.08844730 57185,6917.866,95.437,541.826,537.636,0.0
49411.0,STARLINK-3162,PAYLOAD,2022-11-23 02:59:03,15.08828239,0.0003171,53.2177,217.6556,32.3394,327.7792,-0.00012448,-2.269e-05,0.0,0 STARLINK-3162,1 49411U 21104D   22327.12435012 -.00002269  00000-0 -12448-3 0  9994,2 49411  53.2177 217.6556 0003171  32.3394 327.7792 15.08828239 58303,6917.916,95.438,541.975,537.5880000000002,0.0
49411.0,STARLINK-3162,PAYLOAD,2022-11-23 09:20:36,15.08827577,0.0003198,53.2177,216.4662,32.8105,327.3085,-0.00012131,-2.218e-05,0.0,0 STARLINK-3162,1 49411U 21104D   22327.38931235 -.00002218  00000-0 -12131-3 0  9993,2 49411  53.2177 216.4662 0003198  32.8105 327.3085 15.08827577 57261,6917.918000000002,95.438,541.996,537.571,0.0
49411.0,STARLINK-3162,PAYLOAD,2022-11-23 17:17:31,15.08827998,0.0002998,53.216,214.9803,29.7111,330.4051,-2.3296e-05,-6.59e-06,0.0,0 STARLINK-3162,1 49411U 21104D   22327.72050903 -.00000659  00000-0 -23296-4 0  9997,2 49411  53.2160 214.9803 0002998  29.7111 330.4051 15.08827998 57313,6917.917,95.438,541.856,537.7080000000002,0.0
49411.0,STARLINK-3162,PAYLOAD,2022-11-24 02:49:50,15.08834329,0.0003193,53.2158,213.1962,26.7764,333.3392,6.0554e-06,-1.92e-06,0.0,0 STARLINK-3162,1 49411U 21104D   22328.11794683 -.00000192  00000-0  60554-5 0  9991,2 49411  53.2158 213.1962 0003193  26.7764 333.3392 15.08834329 58458,6917.898,95.438,541.972,537.554,0.0
49411.0,STARLINK-3162,PAYLOAD,2022-11-24 09:11:22,15.0883616,0.0003114,53.2156,212.007,28.2352,331.8808,5.1019e-05,5.23e-06,0.0,0 STARLINK-3162,1 49411U 21104D   22328.38290508  .00000523  00000-0  51019-4 0  9999,2 49411  53.2156 212.0070 0003114  28.2352 331.8808 15.08836160 57412,6917.892,95.438,541.911,537.6030000000002,0.0
49411.0,STARLINK-3162,PAYLOAD,2022-11-25 02:40:37,15.08838326,0.0003134,53.2157,208.7358,30.5294,329.588,0.00016236,2.296e-05,0.0,0 STARLINK-3162,1 49411U 21104D   22329.11153960  .00002296  00000-0  16236-3 0  9991,2 49411  53.2157 208.7358 0003134  30.5294 329.5880 15.08838326 58609,6917.886,95.438,541.919,537.582,0.0
49411.0,STARLINK-3162,PAYLOAD,2022-11-25 09:02:09,15.08839404,0.0003118,53.2158,207.5462,30.6345,329.4828,0.00017829,2.55e-05,0.0,0 STARLINK-3162,1 49411U 21104D   22329.37649838  .00002550  00000-0  17829-3 0  9995,2 49411  53.2158 207.5462 0003118  30.6345 329.4828 15.08839404 57566,6917.882,95.438,541.904,537.59,0.0
49411.0,STARLINK-3162,PAYLOAD,2022-11-25 20:09:52,15.08837097,0.0003147,53.2162,205.4651,33.2771,326.8419,5.5581e-05,5.96e-06,0.0,0 STARLINK-3162,1 49411U 21104D   22329.84018529  .00000596  00000-0  55581-4 0  9990,2 49411  53.2162 205.4651 0003147  33.2771 326.8419 15.08837097 57633,6917.889,95.438,541.931,537.577,0.0
49411.0,STARLINK-3162,PAYLOAD,2022-11-26 08:52:56,15.08848303,0.0003232,53.2162,203.0861,33.3455,326.774,0.00010832,1.436e-05,0.0,0 STARLINK-3162,1 49411U 21104D   22330.37009546  .00001436  00000-0  10832-3 0  9992,2 49411  53.2162 203.0861 0003232  33.3455 326.7740 15.08848303 58791,6917.855,95.437,541.956,537.484,0.0
